[{"OBJECT_NAME":"STARLINK-31037","OBJECT_ID":"2023-192F","EPOCH":"2026-03-09T06:48:14.961600","MEAN_MOTION":15.30193361,"ECCENTRICITY":0.00012531,"INCLINATION":53.1608,"RA_OF_ASC_NODE":64.6159,"ARG_OF_PERICENTER":93.7826,"MEAN_ANOMALY":266.3319,"EPHEMERIS_TYPE":0,"CLASSIFICATION_TYPE":"U","NORAD_CAT_ID":58536,"ELEMENT_SET_NO":999,"REV_AT_EPOCH":12592,"BSTAR":2.593482e-6,"MEAN_MOTION_DOT":-2.82e-6,"MEAN_MOTION_DDOT":0},{"OBJECT_NAME":"CZ-4B DEB","OBJECT_ID":"2010-051E","EPOCH":"2026-03-08T22:01:50.125728","MEAN_MOTION":15.23766972,"ECCENTRICITY":0.00561086,"INCLINATION":97.769,"RA_OF_ASC_NODE":240.5013,"ARG_OF_PERICENTER":301.1291,"MEAN_ANOMALY":58.4449,"EPHEMERIS_TYPE":0,"CLASSIFICATION_TYPE":"U","NORAD_CAT_ID":38184,"ELEMENT_SET_NO":999,"REV_AT_EPOCH":82066,"BSTAR":0.0024566319,"MEAN_MOTION_DOT":0.00062123,"MEAN_MOTION_DDOT":0}]
